{"type": "FeatureCollection", "features": [ {"type": "Feature", "properties": {"norad_id": 43107, "name": "BEIDOU-3 M7 (C27)", "group": "gnss", "lat": -53.89285788698581, "lon": -129.10613677398382, "alt_km": 21540.255608236774, "timestamp": "2025-12-11T07:02:23.973482+00:00", "meta": {"OBJECT_NAME": "BEIDOU-3 M7 (C27)", "OBJECT_ID": "2018-003A", "EPOCH": "2025-12-10T08:14:11.609952", "MEAN_MOTION": 1.86232173, "ECCENTRICITY": 0.00026083, "INCLINATION": 54.4988, "RA_OF_ASC_NODE": 308.8983, "ARG_OF_PERICENTER": 70.7786, "MEAN_ANOMALY": 289.2405, "EPHEMERIS_TYPE": 0, "CLASSIFICATION_TYPE": "U", "NORAD_CAT_ID": 43107, "ELEMENT_SET_NO": 999, "REV_AT_EPOCH": 5383, "BSTAR": 0, "MEAN_MOTION_DOT": -8.2e-07, "MEAN_MOTION_DDOT": 0}, "tle": {"line1": "1 43107U 18003A   25344.34318993 -.00000082  00000+0  00000+0 0  9994", "line2": "2 43107  54.4988 308.8983 0002608  70.7786 289.2405  1.86232173 53837"}}, "geometry": {"type": "Point", "coordinates": [-129.10613677398382, -53.89285788698581]}}, {"type": "Feature", "properties": {"norad_id": 43108, "name": "BEIDOU-3 M8 (C28)", "group": "gnss", "lat": -35.86798218798835, "lon": -82.22669486184121, "alt_km": 21522.197946568984, "timestamp": "2025-12-11T07:02:23.973493+00:00", "meta": {"OBJECT_NAME": "BEIDOU-3 M8 (C28)", "OBJECT_ID": "2018-003B", "EPOCH": "2025-12-10T06:54:49.457952", "MEAN_MOTION": 1.8623067, "ECCENTRICITY": 0.0004813, "INCLINATION": 54.4919, "RA_OF_ASC_NODE": 308.8832, "ARG_OF_PERICENTER": 273.6231, "MEAN_ANOMALY": 86.3126, "EPHEMERIS_TYPE": 0, "CLASSIFICATION_TYPE": "U", "NORAD_CAT_ID": 43108, "ELEMENT_SET_NO": 999, "REV_AT_EPOCH": 5384, "BSTAR": 0, "MEAN_MOTION_DOT": -8.2e-07, "MEAN_MOTION_DDOT": 0}, "tle": {"line1": "1 43108U 18003B   25344.28807243 -.00000082  00000+0  00000+0 0  9999", "line2": "2 43108  54.4919 308.8832 0004813 273.6231  86.3126  1.86230670 53841"}}, "geometry": {"type": "Point", "coordinates": [-82.22669486184121, -35.86798218798835]}}, {"type": "Feature", "properties": {"norad_id": 43207, "name": "BEIDOU-3 M4 (C22)", "group": "gnss", "lat": 14.679219648410822, "lon": 79.3429220559577, "alt_km": 21514.88934712311, "timestamp": "2025-12-11T07:02:23.973504+00:00", "meta": {"OBJECT_NAME": "BEIDOU-3 M4 (C22)", "OBJECT_ID": "2018-018A", "EPOCH": "2025-12-08T13:58:21.554688", "MEAN_MOTION": 1.86230863, "ECCENTRICITY": 0.00041601, "INCLINATION": 56.4826, "RA_OF_ASC_NODE": 69.4414, "ARG_OF_PERICENTER": 11.0555, "MEAN_ANOMALY": 348.9749, "EPHEMERIS_TYPE": 0, "CLASSIFICATION_TYPE": "U", "NORAD_CAT_ID": 43207, "ELEMENT_SET_NO": 999, "REV_AT_EPOCH": 5319, "BSTAR": 0, "MEAN_MOTION_DOT": -4.5e-07, "MEAN_MOTION_DDOT": 0}, "tle": {"line1": "1 43207U 18018A   25342.58219392 -.00000045  00000+0  00000+0 0  9997", "line2": "2 43207  56.4826  69.4414 0004160  11.0555 348.9749  1.86230863 53194"}}, "geometry": {"type": "Point", "coordinates": [79.3429220559577, 14.679219648410822]}}, {"type": "Feature", "properties": {"norad_id": 43208, "name": "BEIDOU-3 M3 (C21)", "group": "gnss", "lat": -22.206106531456786, "lon": 53.68938024988774, "alt_km": 21513.52093625269, "timestamp": "2025-12-11T07:02:23.973517+00:00", "meta": {"OBJECT_NAME": "BEIDOU-3 M3 (C21)", "OBJECT_ID": "2018-018B", "EPOCH": "2025-12-10T19:07:00.604992", "MEAN_MOTION": 1.86231201, "ECCENTRICITY": 0.00065395, "INCLINATION": 56.4841, "RA_OF_ASC_NODE": 69.3721, "ARG_OF_PERICENTER": 317.1665, "MEAN_ANOMALY": 42.8042, "EPHEMERIS_TYPE": 0, "CLASSIFICATION_TYPE": "U", "NORAD_CAT_ID": 43208, "ELEMENT_SET_NO": 999, "REV_AT_EPOCH": 5323, "BSTAR": 0, "MEAN_MOTION_DOT": -5.7e-07, "MEAN_MOTION_DDOT": 0}, "tle": {"line1": "1 43208U 18018B   25344.79653478 -.00000057  00000+0  00000+0 0  9993", "line2": "2 43208  56.4841  69.3721 0006539 317.1665  42.8042  1.86231201 53234"}}, "geometry": {"type": "Point", "coordinates": [53.68938024988774, -22.206106531456786]}}, {"type": "Feature", "properties": {"norad_id": 43245, "name": "BEIDOU-3 M9 (C29)", "group": "gnss", "lat": -6.628460460423657, "lon": 131.2775270125112, "alt_km": 21529.145790316103, "timestamp": "2025-12-11T07:02:23.973528+00:00", "meta": {"OBJECT_NAME": "BEIDOU-3 M9 (C29)", "OBJECT_ID": "2018-029A", "EPOCH": "2025-12-09T09:38:36.109248", "MEAN_MOTION": 1.86227964, "ECCENTRICITY": 0.00016746, "INCLINATION": 54.3687, "RA_OF_ASC_NODE": 306.5834, "ARG_OF_PERICENTER": 274.0787, "MEAN_ANOMALY": 85.8921, "EPHEMERIS_TYPE": 0, "CLASSIFICATION_TYPE": "U", "NORAD_CAT_ID": 43245, "ELEMENT_SET_NO": 999, "REV_AT_EPOCH": 5236, "BSTAR": 0, "MEAN_MOTION_DOT": -7.6e-07, "MEAN_MOTION_DDOT": 0}, "tle": {"line1": "1 43245U 18029A   25343.40180682 -.00000076  00000+0  00000+0 0  9996", "line2": "2 43245  54.3687 306.5834 0001674 274.0787  85.8921  1.86227964 52369"}}, "geometry": {"type": "Point", "coordinates": [131.2775270125112, -6.628460460423657]}}, {"type": "Feature", "properties": {"norad_id": 43246, "name": "BEIDOU-3 M10 (C30)", "group": "gnss", "lat": -39.539012663699545, "lon": 162.80704112438505, "alt_km": 21539.807246601653, "timestamp": "2025-12-11T07:02:23.973539+00:00", "meta": {"OBJECT_NAME": "BEIDOU-3 M10 (C30)", "OBJECT_ID": "2018-029B", "EPOCH": "2025-12-10T09:51:50.083776", "MEAN_MOTION": 1.86228788, "ECCENTRICITY": 0.00039909, "INCLINATION": 54.3654, "RA_OF_ASC_NODE": 306.5763, "ARG_OF_PERICENTER": 359.52, "MEAN_ANOMALY": 0.4707, "EPHEMERIS_TYPE": 0, "CLASSIFICATION_TYPE": "U", "NORAD_CAT_ID": 43246, "ELEMENT_SET_NO": 999, "REV_AT_EPOCH": 5236, "BSTAR": 0, "MEAN_MOTION_DOT": -8.1e-07, "MEAN_MOTION_DDOT": 0}, "tle": {"line1": "1 43246U 18029B   25344.41099634 -.00000081  00000+0  00000+0 0  9991", "line2": "2 43246  54.3654 306.5763 0003990 359.5200   0.4707  1.86228788 52367"}}, "geometry": {"type": "Point", "coordinates": [162.80704112438505, -39.539012663699545]}}, {"type": "Feature", "properties": {"norad_id": 43286, "name": "IRNSS-1I", "group": "gnss", "lat": 7.843405460734273, "lon": -117.19168538916855, "alt_km": 35697.983191074614, "timestamp": "2025-12-11T07:02:23.973551+00:00", "meta": {"OBJECT_NAME": "IRNSS-1I", "OBJECT_ID": "2018-035A", "EPOCH": "2025-12-10T20:46:45.826752", "MEAN_MOTION": 1.00270473, "ECCENTRICITY": 0.00218014, "INCLINATION": 29.146, "RA_OF_ASC_NODE": 77.1264, "ARG_OF_PERICENTER": 181.9029, "MEAN_ANOMALY": 187.524, "EPHEMERIS_TYPE": 0, "CLASSIFICATION_TYPE": "U", "NORAD_CAT_ID": 43286, "ELEMENT_SET_NO": 999, "REV_AT_EPOCH": 2819, "BSTAR": 0, "MEAN_MOTION_DOT": 8.2e-07, "MEAN_MOTION_DDOT": 0}, "tle": {"line1": "1 43286U 18035A   25344.86580818  .00000082  00000+0  00000+0 0  9990", "line2": "2 43286  29.1460  77.1264 0021801 181.9029 187.5240  1.00270473 28197"}}, "geometry": {"type": "Point", "coordinates": [-117.19168538916855, 7.843405460734273]}}, {"type": "Feature", "properties": {"norad_id": 43508, "name": "COSMOS 2527 (756)", "group": "gnss", "lat": -56.61377037783278, "lon": 36.408899635725916, "alt_km": 19128.213929985166, "timestamp": "2025-12-11T07:02:23.973562+00:00", "meta": {"OBJECT_NAME": "COSMOS 2527 (756)", "OBJECT_ID": "2018-053A", "EPOCH": "2025-12-10T10:35:59.703936", "MEAN_MOTION": 2.13102031, "ECCENTRICITY": 0.0008586, "INCLINATION": 65.4714, "RA_OF_ASC_NODE": 80.2084, "ARG_OF_PERICENTER": 224.5475, "MEAN_ANOMALY": 135.4001, "EPHEMERIS_TYPE": 0, "CLASSIFICATION_TYPE": "U", "NORAD_CAT_ID": 43508, "ELEMENT_SET_NO": 999, "REV_AT_EPOCH": 5825, "BSTAR": 0, "MEAN_MOTION_DOT": -1.9e-07, "MEAN_MOTION_DDOT": 0}, "tle": {"line1": "1 43508U 18053A   25344.44166324 -.00000019  00000+0  00000+0 0  9994", "line2": "2 43508  65.4714  80.2084 0008586 224.5475 135.4001  2.13102031 58254"}}, "geometry": {"type": "Point", "coordinates": [36.408899635725916, -56.61377037783278]}}, {"type": "Feature", "properties": {"norad_id": 43539, "name": "BEIDOU-2 IGSO-7 (C16)", "group": "gnss", "lat": 38.149059692972955, "lon": -48.51451024426584, "alt_km": 35877.8228177935, "timestamp": "2025-12-11T07:02:23.973573+00:00", "meta": {"OBJECT_NAME": "BEIDOU-2 IGSO-7 (C16)", "OBJECT_ID": "2018-057A", "EPOCH": "2025-12-10T21:52:21.696672", "MEAN_MOTION": 1.00257387, "ECCENTRICITY": 0.00925026, "INCLINATION": 55.1742, "RA_OF_ASC_NODE": 164.6868, "ARG_OF_PERICENTER": 235.2118, "MEAN_ANOMALY": 119.0859, "EPHEMERIS_TYPE": 0, "CLASSIFICATION_TYPE": "U", "NORAD_CAT_ID": 43539, "ELEMENT_SET_NO": 999, "REV_AT_EPOCH": 2723, "BSTAR": 0, "MEAN_MOTION_DOT": -5.8e-07, "MEAN_MOTION_DDOT": 0}, "tle": {"line1": "1 43539U 18057A   25344.91136223 -.00000058  00000+0  00000+0 0  9992", "line2": "2 43539  55.1742 164.6868 0092502 235.2118 119.0859  1.00257387 27239"}}, "geometry": {"type": "Point", "coordinates": [-48.51451024426584, 38.149059692972955]}}, {"type": "Feature", "properties": {"norad_id": 43564, "name": "GSAT0221 (GALILEO 25)", "group": "gnss", "lat": -32.29531783387894, "lon": -37.17222528088271, "alt_km": 23210.351775812946, "timestamp": "2025-12-11T07:02:23.973585+00:00", "meta": {"OBJECT_NAME": "GSAT0221 (GALILEO 25)", "OBJECT_ID": "2018-060A", "EPOCH": "2025-12-10T18:30:15.068736", "MEAN_MOTION": 1.70475777, "ECCENTRICITY": 0.00067151, "INCLINATION": 57.2282, "RA_OF_ASC_NODE": 346.8706, "ARG_OF_PERICENTER": 282.7382, "MEAN_ANOMALY": 77.2035, "EPHEMERIS_TYPE": 0, "CLASSIFICATION_TYPE": "U", "NORAD_CAT_ID": 43564, "ELEMENT_SET_NO": 999, "REV_AT_EPOCH": 4595, "BSTAR": 0, "MEAN_MOTION_DOT": -8.7e-07, "MEAN_MOTION_DDOT": 0}, "tle": {"line1": "1 43564U 18060A   25344.77100774 -.00000087  00000+0  00000+0 0  9992", "line2": "2 43564  57.2282 346.8706 0006715 282.7382  77.2035  1.70475777 45957"}}, "geometry": {"type": "Point", "coordinates": [-37.17222528088271, -32.29531783387894]}}]}